start=new Date('2022-08-23T00:00:00.000Z').valueOf();
sats=[{"INCLINATION":"70.0019","EPOCH":"2022-08-22T10:26:30.384960","REV_AT_EPOCH":"5355","COUNTRY_CODE":"US","RCS_SIZE":"LARGE","ECCENTRICITY":"0.00029550","PERIOD":"96.208","OBJECT_NAME":"STARLINK-3083","ELEMENT_SET_NO":"999","APOAPSIS":"578.998","MEAN_MOTION_DOT":"-0.00000518","MEAN_MOTION_DDOT":"0.0000000000000","RA_OF_ASC_NODE":"300.2128","GP_ID":"210744169","OBJECT_TYPE":"PAYLOAD","MEAN_MOTION":"14.96751911","PERIAPSIS":"574.887","CENTER_NAME":"EARTH","FILE":"3543757","CLASSIFICATION_TYPE":"U","TLE_LINE2":"2 49158  70.0019 300.2128 0002955 258.2430 101.8397 14.96751911 53558","MEAN_ELEMENT_THEORY":"SGP4","MEAN_ANOMALY":"101.8397","DECAY_DATE":null,"BSTAR":"-0.00003720100000","TIME_SYSTEM":"UTC","OBJECT_ID":"2021-082AE","REF_FRAME":"TEME","EPHEMERIS_TYPE":"0","ARG_OF_PERICENTER":"258.2430","TLE_LINE1":"1 49158U 21082AE  22234.43507390 -.00000518  00000-0 -37201-4 0  9997","LAUNCH_DATE":"2021-09-14","SEMIMAJOR_AXIS":"6955.077","SITE":"AFWTR","NORAD_CAT_ID":"49158"},{"MEAN_ELEMENT_THEORY":"SGP4","CLASSIFICATION_TYPE":"U","TLE_LINE2":"2 49159  70.0021 320.3113 0003680 246.1423 113.9351 14.98333651 53051","SITE":"AFWTR","NORAD_CAT_ID":"49159","LAUNCH_DATE":"2021-09-14","SEMIMAJOR_AXIS":"6950.182","TLE_LINE1":"1 49159U 21082AF  22234.41138343 -.00001781  00000-0 -14150-3 0  9994","ARG_OF_PERICENTER":"246.1423","EPHEMERIS_TYPE":"0","REF_FRAME":"TEME","OBJECT_ID":"2021-082AF","TIME_SYSTEM":"UTC","BSTAR":"-0.00014150000000","DECAY_DATE":null,"MEAN_ANOMALY":"113.9351","OBJECT_NAME":"STARLINK-3056","PERIOD":"96.107","ECCENTRICITY":"0.00036800","RCS_SIZE":"LARGE","COUNTRY_CODE":"US","REV_AT_EPOCH":"5305","EPOCH":"2022-08-22T09:52:23.528352","INCLINATION":"70.0021","FILE":"3544179","CENTER_NAME":"EARTH","PERIAPSIS":"569.489","MEAN_MOTION":"14.98333651","OBJECT_TYPE":"PAYLOAD","GP_ID":"210778610","RA_OF_ASC_NODE":"320.3113","MEAN_MOTION_DDOT":"0.0000000000000","MEAN_MOTION_DOT":"-0.00001781","APOAPSIS":"574.604","ELEMENT_SET_NO":"999"},{"MEAN_ELEMENT_THEORY":"SGP4","CLASSIFICATION_TYPE":"U","TLE_LINE2":"2 49160  70.0009 320.1648 0003278 259.9169 100.1620 14.98320795 53032","SITE":"AFWTR","NORAD_CAT_ID":"49160","ARG_OF_PERICENTER":"259.9169","TLE_LINE1":"1 49160U 21082AG  22234.46860348  .00000023  00000-0  97138-5 0  9993","SEMIMAJOR_AXIS":"6950.221","LAUNCH_DATE":"2021-09-14","OBJECT_ID":"2021-082AG","REF_FRAME":"TEME","EPHEMERIS_TYPE":"0","MEAN_ANOMALY":"100.1620","DECAY_DATE":null,"BSTAR":"0.00000971380000","TIME_SYSTEM":"UTC","OBJECT_NAME":"STARLINK-3095","RCS_SIZE":"LARGE","ECCENTRICITY":"0.00032780","PERIOD":"96.108","REV_AT_EPOCH":"5303","COUNTRY_CODE":"US","INCLINATION":"70.0009","EPOCH":"2022-08-22T11:14:47.340672","CENTER_NAME":"EARTH","PERIAPSIS":"569.808","FILE":"3544179","GP_ID":"210777358","OBJECT_TYPE":"PAYLOAD","MEAN_MOTION":"14.98320795","MEAN_MOTION_DDOT":"0.0000000000000","RA_OF_ASC_NODE":"320.1648","APOAPSIS":"574.365","ELEMENT_SET_NO":"999","MEAN_MOTION_DOT":"0.00000023"},{"INCLINATION":"70.0010","EPOCH":"2022-08-22T09:45:31.202496","COUNTRY_CODE":"US","REV_AT_EPOCH":"5303","ECCENTRICITY":"0.00032540","RCS_SIZE":"LARGE","PERIOD":"96.108","OBJECT_NAME":"STARLINK-3080","MEAN_MOTION_DOT":"0.00000516","ELEMENT_SET_NO":"999","APOAPSIS":"574.346","MEAN_MOTION_DDOT":"0.0000000000000","RA_OF_ASC_NODE":"320.3150","OBJECT_TYPE":"PAYLOAD","GP_ID":"210777608","MEAN_MOTION":"14.98321314","PERIAPSIS":"569.823","CENTER_NAME":"EARTH","FILE":"3544179","CLASSIFICATION_TYPE":"U","TLE_LINE2":"2 49161  70.0010 320.3150 0003254 246.6947 113.3870 14.98321314 53037","MEAN_ELEMENT_THEORY":"SGP4","DECAY_DATE":null,"BSTAR":"0.00005106300000","MEAN_ANOMALY":"113.3870","TIME_SYSTEM":"UTC","REF_FRAME":"TEME","OBJECT_ID":"2021-082AH","EPHEMERIS_TYPE":"0","ARG_OF_PERICENTER":"246.6947","LAUNCH_DATE":"2021-09-14","SEMIMAJOR_AXIS":"6950.220","TLE_LINE1":"1 49161U 21082AH  22234.40661114  .00000516  00000-0  51063-4 0  9991","SITE":"AFWTR","NORAD_CAT_ID":"49161"},{"SITE":"AFWTR","NORAD_CAT_ID":"49162","ARG_OF_PERICENTER":"255.9114","LAUNCH_DATE":"2021-09-14","SEMIMAJOR_AXIS":"6950.213","TLE_LINE1":"1 49162U 21082AJ  22234.53059367 -.00000019  00000-0  61996-5 0  9993","REF_FRAME":"TEME","OBJECT_ID":"2021-082AJ","EPHEMERIS_TYPE":"0","MEAN_ANOMALY":"104.1691","DECAY_DATE":null,"BSTAR":"0.00000619960000","TIME_SYSTEM":"UTC","MEAN_ELEMENT_THEORY":"SGP4","TLE_LINE2":"2 49162  70.0009 320.0031 0003182 255.9114 104.1691 14.98323399 53135","CLASSIFICATION_TYPE":"U","CENTER_NAME":"EARTH","PERIAPSIS":"569.867","FILE":"3544179","OBJECT_TYPE":"PAYLOAD","GP_ID":"210778360","MEAN_MOTION":"14.98323399","MEAN_MOTION_DDOT":"0.0000000000000","RA_OF_ASC_NODE":"320.0031","MEAN_MOTION_DOT":"-0.00000019","APOAPSIS":"574.290","ELEMENT_SET_NO":"999","OBJECT_NAME":"STARLINK-3082","ECCENTRICITY":"0.00031820","RCS_SIZE":"LARGE","PERIOD":"96.107","COUNTRY_CODE":"US","REV_AT_EPOCH":"5313","INCLINATION":"70.0009","EPOCH":"2022-08-22T12:44:03.293088"},{"MEAN_ANOMALY":"105.2977","DECAY_DATE":null,"BSTAR":"-0.00004576100000","TIME_SYSTEM":"UTC","REF_FRAME":"TEME","OBJECT_ID":"2021-082AK","EPHEMERIS_TYPE":"0","ARG_OF_PERICENTER":"254.7831","SEMIMAJOR_AXIS":"6955.214","LAUNCH_DATE":"2021-09-14","TLE_LINE1":"1 49163U 21082AK  22234.69857123 -.00000615  00000-0 -45761-4 0  9991","SITE":"AFWTR","NORAD_CAT_ID":"49163","TLE_LINE2":"2 49163  70.0003 299.5594 0003167 254.7831 105.2977 14.96707635 53653","CLASSIFICATION_TYPE":"U","MEAN_ELEMENT_THEORY":"SGP4","MEAN_MOTION_DOT":"-0.00000615","ELEMENT_SET_NO":"999","APOAPSIS":"579.282","RA_OF_ASC_NODE":"299.5594","MEAN_MOTION_DDOT":"0.0000000000000","OBJECT_TYPE":"PAYLOAD","GP_ID":"210779110","MEAN_MOTION":"14.96707635","PERIAPSIS":"574.877","CENTER_NAME":"EARTH","FILE":"3544179","INCLINATION":"70.0003","EPOCH":"2022-08-22T16:45:56.554272","COUNTRY_CODE":"US","REV_AT_EPOCH":"5365","ECCENTRICITY":"0.00031670","RCS_SIZE":"LARGE","PERIOD":"96.211","OBJECT_NAME":"STARLINK-3088"},{"EPHEMERIS_TYPE":"0","REF_FRAME":"TEME","OBJECT_ID":"2021-082AL","TIME_SYSTEM":"UTC","DECAY_DATE":null,"MEAN_ANOMALY":"103.9527","BSTAR":"-0.00001533200000","SITE":"AFWTR","NORAD_CAT_ID":"49164","LAUNCH_DATE":"2021-09-14","SEMIMAJOR_AXIS":"6955.223","TLE_LINE1":"1 49164U 21082AL  22234.68885051 -.00000267  00000-0 -15332-4 0  9996","ARG_OF_PERICENTER":"256.1279","CLASSIFICATION_TYPE":"U","TLE_LINE2":"2 49164  70.0001 299.5696 0003173 256.1279 103.9527 14.96704757 53663","MEAN_ELEMENT_THEORY":"SGP4","MEAN_MOTION_DDOT":"0.0000000000000","RA_OF_ASC_NODE":"299.5696","MEAN_MOTION_DOT":"-0.00000267","APOAPSIS":"579.295","ELEMENT_SET_NO":"999","FILE":"3544179","PERIAPSIS":"574.881","CENTER_NAME":"EARTH","MEAN_MOTION":"14.96704757","OBJECT_TYPE":"PAYLOAD","GP_ID":"210777858","COUNTRY_CODE":"US","REV_AT_EPOCH":"5366","EPOCH":"2022-08-22T16:31:56.684064","INCLINATION":"70.0001","OBJECT_NAME":"STARLINK-3106","PERIOD":"96.211","ECCENTRICITY":"0.00031730","RCS_SIZE":"LARGE"},{"TLE_LINE2":"2 49165  70.0011 319.3431 0003232 251.0994 108.9815 14.98322605 53213","CLASSIFICATION_TYPE":"U","MEAN_ELEMENT_THEORY":"SGP4","TIME_SYSTEM":"UTC","DECAY_DATE":null,"BSTAR":"-0.00002066100000","MEAN_ANOMALY":"108.9815","EPHEMERIS_TYPE":"0","REF_FRAME":"TEME","OBJECT_ID":"2021-082AM","LAUNCH_DATE":"2021-09-14","SEMIMAJOR_AXIS":"6950.216","TLE_LINE1":"1 49165U 21082AM  22234.79286056 -.00000339  00000-0 -20661-4 0  9990","ARG_OF_PERICENTER":"251.0994","NORAD_CAT_ID":"49165","SITE":"AFWTR","EPOCH":"2022-08-22T19:01:43.152384","INCLINATION":"70.0011","COUNTRY_CODE":"US","REV_AT_EPOCH":"5321","PERIOD":"96.107","ECCENTRICITY":"0.00032320","RCS_SIZE":"LARGE","OBJECT_NAME":"STARLINK-3052","MEAN_MOTION_DOT":"-0.00000339","ELEMENT_SET_NO":"999","APOAPSIS":"574.327","RA_OF_ASC_NODE":"319.3431","MEAN_MOTION_DDOT":"0.0000000000000","MEAN_MOTION":"14.98322605","OBJECT_TYPE":"PAYLOAD","GP_ID":"210778108","FILE":"3544179","CENTER_NAME":"EARTH","PERIAPSIS":"569.834"},{"LAUNCH_DATE":"2021-09-14","SEMIMAJOR_AXIS":"6955.174","TLE_LINE1":"1 49166U 21082AN  22234.42638648  .00002295  00000-0  20844-3 0  9992","ARG_OF_PERICENTER":"251.8797","NORAD_CAT_ID":"49166","SITE":"AFWTR","TIME_SYSTEM":"UTC","BSTAR":"0.00020844000000","DECAY_DATE":null,"MEAN_ANOMALY":"108.1983","EPHEMERIS_TYPE":"0","REF_FRAME":"TEME","OBJECT_ID":"2021-082AN","MEAN_ELEMENT_THEORY":"SGP4","TLE_LINE2":"2 49166  69.9990 300.2237 0003467 251.8797 108.1983 14.96720625 53657","CLASSIFICATION_TYPE":"U","MEAN_MOTION":"14.96720625","OBJECT_TYPE":"PAYLOAD","GP_ID":"210778860","FILE":"3544179","CENTER_NAME":"EARTH","PERIAPSIS":"574.628","MEAN_MOTION_DOT":"0.00002295","ELEMENT_SET_NO":"999","APOAPSIS":"579.451","MEAN_MOTION_DDOT":"0.0000000000000","RA_OF_ASC_NODE":"300.2237","PERIOD":"96.210","ECCENTRICITY":"0.00034670","RCS_SIZE":"LARGE","OBJECT_NAME":"STARLINK-3089","EPOCH":"2022-08-22T10:13:59.791872","INCLINATION":"69.9990","COUNTRY_CODE":"US","REV_AT_EPOCH":"5365"},{"DECAY_DATE":null,"BSTAR":"0.00021084000000","MEAN_ANOMALY":"115.4071","TIME_SYSTEM":"UTC","OBJECT_ID":"2021-082AP","REF_FRAME":"TEME","EPHEMERIS_TYPE":"0","ARG_OF_PERICENTER":"244.6728","TLE_LINE1":"1 49167U 21082AP  22234.78810435  .00002423  00000-0  21084-3 0  9998","SEMIMAJOR_AXIS":"6950.215","LAUNCH_DATE":"2021-09-14","SITE":"AFWTR","NORAD_CAT_ID":"49167","TLE_LINE2":"2 49167  70.0006 319.3579 0003483 244.6728 115.4071 14.98322769 53211","CLASSIFICATION_TYPE":"U","MEAN_ELEMENT_THEORY":"SGP4","ELEMENT_SET_NO":"999","APOAPSIS":"574.501","MEAN_MOTION_DOT":"0.00002423","MEAN_MOTION_DDOT":"0.0000000000000","RA_OF_ASC_NODE":"319.3579","GP_ID":"210778611","OBJECT_TYPE":"PAYLOAD","MEAN_MOTION":"14.98322769","PERIAPSIS":"569.659","CENTER_NAME":"EARTH","FILE":"3544179","INCLINATION":"70.0006","EPOCH":"2022-08-22T18:54:52.215840","REV_AT_EPOCH":"5321","COUNTRY_CODE":"US","RCS_SIZE":"LARGE","ECCENTRICITY":"0.00034830","PERIOD":"96.107","OBJECT_NAME":"STARLINK-3054"}];
